{
  "norad_id": 55135,
  "name": "2023-003C",
  "history": [
    {
      "epoch": "2026-03-28T21:55:48.439776",
      "apogee_km": 413.68500119353394,
      "perigee_km": 407.3612285233421,
      "latitude_deg": 8.094493262076073,
      "longitude_deg": 141.22048864001408,
      "semi_major_axis_km": 6788.660114858438,
      "eccentricity": 0.00046576,
      "inclination_deg": 97.1573,
      "raan_deg": 164.5874,
      "arg_perigee_deg": 80.074,
      "mean_anomaly_deg": 280.1039,
      "mean_motion_rev_day": 15.52124891
    },
    {
      "epoch": "2026-03-29T04:07:09.287328",
      "apogee_km": 413.6204222228307,
      "perigee_km": 407.3314511982617,
      "latitude_deg": 66.00379854390913,
      "longitude_deg": 165.97698591998778,
      "semi_major_axis_km": 6788.612936710546,
      "eccentricity": 0.0004632,
      "inclination_deg": 97.1573,
      "raan_deg": 164.8443,
      "arg_perigee_deg": 78.8907,
      "mean_anomaly_deg": 281.2867,
      "mean_motion_rev_day": 15.52141071
    }
  ]
}